start=new Date('2022-02-04T00:00:00.000Z').valueOf();
sats=[{"NORAD_CAT_ID":"46726","OBJECT_TYPE":"PAYLOAD","MEAN_MOTION_DDOT":"0.0000000000000","ARG_OF_PERICENTER":"233.5174","RA_OF_ASC_NODE":"113.3143","PERIAPSIS":"544.746","MEAN_ANOMALY":"126.5490","FILE":"3291273","SITE":"AFETR","RCS_SIZE":"LARGE","CENTER_NAME":"EARTH","TLE_LINE2":"2 46726  53.0560 113.3143 0003523 233.5174 126.5490 15.06409179 71782","DECAY_DATE":null,"LAUNCH_DATE":"2020-10-18","INCLINATION":"53.0560","ECCENTRICITY":"0.00035230","OBJECT_ID":"2020-073BJ","REV_AT_EPOCH":"7178","SEMIMAJOR_AXIS":"6925.320","TIME_SYSTEM":"UTC","MEAN_ELEMENT_THEORY":"SGP4","MEAN_MOTION_DOT":"0.00002659","COUNTRY_CODE":"US","ELEMENT_SET_NO":"999","TLE_LINE1":"1 46726U 20073BJ  22034.60731488  .00002659  00000-0  19729-3 0  9998","MEAN_MOTION":"15.06409179","EPOCH":"2022-02-03T14:34:32.005632","APOAPSIS":"549.625","CLASSIFICATION_TYPE":"U","GP_ID":"195260502","REF_FRAME":"TEME","PERIOD":"95.592","BSTAR":"0.00019729000000","OBJECT_NAME":"STARLINK-1829","EPHEMERIS_TYPE":"0"},{"MEAN_ANOMALY":"298.4184","SITE":"AFETR","FILE":"3291273","OBJECT_TYPE":"PAYLOAD","MEAN_MOTION_DDOT":"0.0000000000000","NORAD_CAT_ID":"46727","ARG_OF_PERICENTER":"61.6973","RA_OF_ASC_NODE":"87.3009","PERIAPSIS":"546.061","DECAY_DATE":null,"LAUNCH_DATE":"2020-10-18","INCLINATION":"53.0550","RCS_SIZE":"LARGE","CENTER_NAME":"EARTH","TLE_LINE2":"2 46727  53.0550  87.3009 0001673  61.6973 298.4184 15.06397946 72175","MEAN_MOTION_DOT":"-0.00001014","COUNTRY_CODE":"US","ELEMENT_SET_NO":"999","APOAPSIS":"548.378","TLE_LINE1":"1 46727U 20073BK  22034.82894292 -.00001014  00000-0 -49189-4 0  9996","EPOCH":"2022-02-03T19:53:40.668288","MEAN_MOTION":"15.06397946","REV_AT_EPOCH":"7217","OBJECT_ID":"2020-073BK","ECCENTRICITY":"0.00016730","TIME_SYSTEM":"UTC","MEAN_ELEMENT_THEORY":"SGP4","SEMIMAJOR_AXIS":"6925.355","OBJECT_NAME":"STARLINK-1830","EPHEMERIS_TYPE":"0","CLASSIFICATION_TYPE":"U","GP_ID":"195260755","PERIOD":"95.592","BSTAR":"-0.00004918900000","REF_FRAME":"TEME"},{"PERIAPSIS":"325.080","RA_OF_ASC_NODE":"53.4852","NORAD_CAT_ID":"46728","OBJECT_TYPE":"PAYLOAD","MEAN_MOTION_DDOT":"0.0000000000000","ARG_OF_PERICENTER":"32.7694","SITE":"AFETR","FILE":"3291273","MEAN_ANOMALY":"327.3680","TLE_LINE2":"2 46728  53.0473  53.4852 0005709  32.7694 327.3680 15.80542009 72631","CENTER_NAME":"EARTH","RCS_SIZE":"LARGE","INCLINATION":"53.0473","DECAY_DATE":null,"LAUNCH_DATE":"2020-10-18","MEAN_ELEMENT_THEORY":"SGP4","TIME_SYSTEM":"UTC","SEMIMAJOR_AXIS":"6707.044","REV_AT_EPOCH":"7263","ECCENTRICITY":"0.00057090","OBJECT_ID":"2020-073BL","APOAPSIS":"332.738","EPOCH":"2022-02-03T18:06:37.910880","MEAN_MOTION":"15.80542009","TLE_LINE1":"1 46728U 20073BL  22034.75460545  .00154208  00000-0  78201-3 0  9997","COUNTRY_CODE":"US","MEAN_MOTION_DOT":"0.00154208","ELEMENT_SET_NO":"999","BSTAR":"0.00078201000000","PERIOD":"91.108","REF_FRAME":"TEME","CLASSIFICATION_TYPE":"U","GP_ID":"195259004","EPHEMERIS_TYPE":"0","OBJECT_NAME":"STARLINK-1831"},{"TLE_LINE2":"2 46740  53.0529 197.1969 0001979  79.1364 280.9848 15.06383824 71293","RCS_SIZE":"LARGE","CENTER_NAME":"EARTH","INCLINATION":"53.0529","DECAY_DATE":null,"LAUNCH_DATE":"2020-10-24","RA_OF_ASC_NODE":"197.1969","PERIAPSIS":"545.893","MEAN_MOTION_DDOT":"0.0000000000000","OBJECT_TYPE":"PAYLOAD","ARG_OF_PERICENTER":"79.1364","NORAD_CAT_ID":"46740","SITE":"AFETR","FILE":"3291273","MEAN_ANOMALY":"280.9848","PERIOD":"95.593","BSTAR":"-0.00004030300000","REF_FRAME":"TEME","CLASSIFICATION_TYPE":"U","GP_ID":"195259754","EPHEMERIS_TYPE":"0","OBJECT_NAME":"STARLINK-1848","TIME_SYSTEM":"UTC","MEAN_ELEMENT_THEORY":"SGP4","SEMIMAJOR_AXIS":"6925.398","REV_AT_EPOCH":"7129","ECCENTRICITY":"0.00019790","OBJECT_ID":"2020-074B","APOAPSIS":"548.634","TLE_LINE1":"1 46740U 20074B   22034.85569382 -.00000882  00000-0 -40303-4 0  9995","EPOCH":"2022-02-03T20:32:11.946048","MEAN_MOTION":"15.06383824","ELEMENT_SET_NO":"999","COUNTRY_CODE":"US","MEAN_MOTION_DOT":"-0.00000882"},{"PERIOD":"95.593","BSTAR":"0.00002728000000","REF_FRAME":"TEME","CLASSIFICATION_TYPE":"U","GP_ID":"195260503","EPHEMERIS_TYPE":"0","OBJECT_NAME":"STARLINK-1865","MEAN_ELEMENT_THEORY":"SGP4","TIME_SYSTEM":"UTC","SEMIMAJOR_AXIS":"6925.367","REV_AT_EPOCH":"7136","OBJECT_ID":"2020-074C","ECCENTRICITY":"0.00019590","APOAPSIS":"548.589","TLE_LINE1":"1 46741U 20074C   22034.80637832  .00000125  00000-0  27280-4 0  9994","EPOCH":"2022-02-03T19:21:11.086848","MEAN_MOTION":"15.06393993","COUNTRY_CODE":"US","ELEMENT_SET_NO":"999","MEAN_MOTION_DOT":"0.00000125","TLE_LINE2":"2 46741  53.0536 192.4103 0001959  77.7670 282.3538 15.06393993 71360","RCS_SIZE":"LARGE","CENTER_NAME":"EARTH","INCLINATION":"53.0536","DECAY_DATE":null,"LAUNCH_DATE":"2020-10-24","RA_OF_ASC_NODE":"192.4103","PERIAPSIS":"545.875","OBJECT_TYPE":"PAYLOAD","ARG_OF_PERICENTER":"77.7670","MEAN_MOTION_DDOT":"0.0000000000000","NORAD_CAT_ID":"46741","SITE":"AFETR","FILE":"3291273","MEAN_ANOMALY":"282.3538"},{"COUNTRY_CODE":"US","MEAN_MOTION_DOT":"0.00002373","ELEMENT_SET_NO":"999","APOAPSIS":"548.283","EPOCH":"2022-02-03T20:14:15.800352","MEAN_MOTION":"15.06398143","TLE_LINE1":"1 46742U 20074D   22034.84323843  .00002373  00000-0  17817-3 0  9994","REV_AT_EPOCH":"7136","ECCENTRICITY":"0.00015360","OBJECT_ID":"2020-074D","MEAN_ELEMENT_THEORY":"SGP4","TIME_SYSTEM":"UTC","SEMIMAJOR_AXIS":"6925.354","OBJECT_NAME":"STARLINK-1872","EPHEMERIS_TYPE":"0","CLASSIFICATION_TYPE":"U","GP_ID":"195260756","BSTAR":"0.00017817000000","PERIOD":"95.592","REF_FRAME":"TEME","MEAN_ANOMALY":"285.8805","SITE":"AFETR","FILE":"3291273","OBJECT_TYPE":"PAYLOAD","NORAD_CAT_ID":"46742","MEAN_MOTION_DDOT":"0.0000000000000","ARG_OF_PERICENTER":"74.2353","PERIAPSIS":"546.156","RA_OF_ASC_NODE":"192.2381","LAUNCH_DATE":"2020-10-24","DECAY_DATE":null,"INCLINATION":"53.0538","CENTER_NAME":"EARTH","RCS_SIZE":"LARGE","TLE_LINE2":"2 46742  53.0538 192.2381 0001536  74.2353 285.8805 15.06398143 71367"},{"OBJECT_ID":"2020-074E","ECCENTRICITY":"0.00010230","REV_AT_EPOCH":"7136","SEMIMAJOR_AXIS":"6925.343","MEAN_ELEMENT_THEORY":"SGP4","TIME_SYSTEM":"UTC","MEAN_MOTION_DOT":"0.00002078","COUNTRY_CODE":"US","ELEMENT_SET_NO":"999","EPOCH":"2022-02-03T19:10:33.747744","MEAN_MOTION":"15.06401964","TLE_LINE1":"1 46743U 20074E   22034.79900171  .00002078  00000-0  15835-3 0  9994","APOAPSIS":"547.916","GP_ID":"195259005","CLASSIFICATION_TYPE":"U","REF_FRAME":"TEME","BSTAR":"0.00015835000000","PERIOD":"95.592","OBJECT_NAME":"STARLINK-1892","EPHEMERIS_TYPE":"0","MEAN_MOTION_DDOT":"0.0000000000000","OBJECT_TYPE":"PAYLOAD","NORAD_CAT_ID":"46743","ARG_OF_PERICENTER":"148.6228","PERIAPSIS":"546.499","RA_OF_ASC_NODE":"192.4351","MEAN_ANOMALY":"211.4822","FILE":"3291273","SITE":"AFETR","RCS_SIZE":"LARGE","CENTER_NAME":"EARTH","TLE_LINE2":"2 46743  53.0524 192.4351 0001023 148.6228 211.4822 15.06401964 71360","LAUNCH_DATE":"2020-10-24","DECAY_DATE":null,"INCLINATION":"53.0524"},{"SITE":"AFETR","FILE":"3291273","MEAN_ANOMALY":"287.1103","RA_OF_ASC_NODE":"192.3481","PERIAPSIS":"545.805","OBJECT_TYPE":"PAYLOAD","NORAD_CAT_ID":"46744","MEAN_MOTION_DDOT":"0.0000000000000","ARG_OF_PERICENTER":"73.0102","INCLINATION":"53.0538","DECAY_DATE":null,"LAUNCH_DATE":"2020-10-24","TLE_LINE2":"2 46744  53.0538 192.3481 0001969  73.0102 287.1103 15.06414795 71368","CENTER_NAME":"EARTH","RCS_SIZE":"LARGE","APOAPSIS":"548.532","TLE_LINE1":"1 46744U 20074F   22034.81742956  .00002675  00000-0  19835-3 0  9990","MEAN_MOTION":"15.06414795","EPOCH":"2022-02-03T19:37:05.913984","ELEMENT_SET_NO":"999","COUNTRY_CODE":"US","MEAN_MOTION_DOT":"0.00002675","TIME_SYSTEM":"UTC","MEAN_ELEMENT_THEORY":"SGP4","SEMIMAJOR_AXIS":"6925.303","REV_AT_EPOCH":"7136","ECCENTRICITY":"0.00019690","OBJECT_ID":"2020-074F","EPHEMERIS_TYPE":"0","OBJECT_NAME":"STARLINK-1894","PERIOD":"95.591","BSTAR":"0.00019835000000","REF_FRAME":"TEME","CLASSIFICATION_TYPE":"U","GP_ID":"195259255"},{"LAUNCH_DATE":"2020-10-24","DECAY_DATE":null,"INCLINATION":"53.0555","CENTER_NAME":"EARTH","RCS_SIZE":"LARGE","TLE_LINE2":"2 46745  53.0555 172.1628 0002601 294.9489  65.1246 15.43893026 71623","MEAN_ANOMALY":"65.1246","FILE":"3291320","SITE":"AFETR","MEAN_MOTION_DDOT":"0.0000000000000","OBJECT_TYPE":"PAYLOAD","NORAD_CAT_ID":"46745","ARG_OF_PERICENTER":"294.9489","PERIAPSIS":"432.863","RA_OF_ASC_NODE":"172.1628","OBJECT_NAME":"STARLINK-1898","EPHEMERIS_TYPE":"0","CLASSIFICATION_TYPE":"U","GP_ID":"195264620","REF_FRAME":"TEME","BSTAR":"0.00193190000000","PERIOD":"93.271","MEAN_MOTION_DOT":"0.00089756","COUNTRY_CODE":"US","ELEMENT_SET_NO":"999","EPOCH":"2022-02-03T18:46:51.950208","MEAN_MOTION":"15.43893026","TLE_LINE1":"1 46745U 20074G   22034.78254572  .00089756  00000-0  19319-2 0  9990","APOAPSIS":"436.407","ECCENTRICITY":"0.00026010","OBJECT_ID":"2020-074G","REV_AT_EPOCH":"7162","SEMIMAJOR_AXIS":"6812.770","MEAN_ELEMENT_THEORY":"SGP4","TIME_SYSTEM":"UTC"},{"TLE_LINE1":"1 46746U 20074H   22034.83216719  .00000751  00000-0  69305-4 0  9998","MEAN_MOTION":"15.06409945","EPOCH":"2022-02-03T19:58:19.245216","APOAPSIS":"548.349","ELEMENT_SET_NO":"999","COUNTRY_CODE":"US","MEAN_MOTION_DOT":"0.00000751","SEMIMAJOR_AXIS":"6925.318","TIME_SYSTEM":"UTC","MEAN_ELEMENT_THEORY":"SGP4","ECCENTRICITY":"0.00016830","OBJECT_ID":"2020-074H","REV_AT_EPOCH":"7136","EPHEMERIS_TYPE":"0","OBJECT_NAME":"STARLINK-1905","REF_FRAME":"TEME","PERIOD":"95.592","BSTAR":"0.00006930500000","GP_ID":"195260257","CLASSIFICATION_TYPE":"U","FILE":"3291273","SITE":"AFETR","MEAN_ANOMALY":"276.3185","RA_OF_ASC_NODE":"192.2912","PERIAPSIS":"546.018","OBJECT_TYPE":"PAYLOAD","NORAD_CAT_ID":"46746","MEAN_MOTION_DDOT":"0.0000000000000","ARG_OF_PERICENTER":"83.7996","INCLINATION":"53.0546","DECAY_DATE":null,"LAUNCH_DATE":"2020-10-24","TLE_LINE2":"2 46746  53.0546 192.2912 0001683  83.7996 276.3185 15.06409945 71360","RCS_SIZE":"LARGE","CENTER_NAME":"EARTH"}];
